[{"OBJECT_NAME":"STARLINK-30382","OBJECT_ID":"2023-134R","EPOCH":"2026-03-09T09:09:23.129280","MEAN_MOTION":15.26740595,"ECCENTRICITY":0.00012881,"INCLINATION":43,"RA_OF_ASC_NODE":195.885,"ARG_OF_PERICENTER":255.3449,"MEAN_ANOMALY":104.7259,"EPHEMERIS_TYPE":0,"CLASSIFICATION_TYPE":"U","NORAD_CAT_ID":57786,"ELEMENT_SET_NO":999,"REV_AT_EPOCH":13946,"BSTAR":1.4912789e-5,"MEAN_MOTION_DOT":1.4e-6,"MEAN_MOTION_DDOT":0},{"OBJECT_NAME":"TIANMU-1 16","OBJECT_ID":"2024-004B","EPOCH":"2026-03-09T23:11:35.492064","MEAN_MOTION":15.25874833,"ECCENTRICITY":0.00051977,"INCLINATION":97.4617,"RA_OF_ASC_NODE":254.5267,"ARG_OF_PERICENTER":355.4475,"MEAN_ANOMALY":4.6715,"EPHEMERIS_TYPE":0,"CLASSIFICATION_TYPE":"U","NORAD_CAT_ID":58701,"ELEMENT_SET_NO":999,"REV_AT_EPOCH":12064,"BSTAR":0.00031061517,"MEAN_MOTION_DOT":7.887e-5,"MEAN_MOTION_DDOT":0}]
